H1 CPF 01  gfz 2022 11 06 01  8101 tandemx   
H2 1003001  6202 36605    2022 11 06 00 59 42 2022 11 11 00 00 42   120 1 1  0 0 0
H9
10 0 59891  29502.000000  0   -2942854.338    920185.910  -6167079.802
10 0 59891  29622.000000  0   -3568497.433   1426986.367  -5724185.231
10 0 59891  29742.000000  0   -4123475.838   1919356.536  -5181253.279
10 0 59891  29862.000000  0   -4598426.922   2387399.983  -4547681.951
10 0 59891  29982.000000  0   -4985524.921   2821472.861  -3834468.685
10 0 59891  30102.000000  0   -5278617.509   3212381.286  -3054028.942
10 0 59891  30222.000000  0   -5473333.568   3551576.322  -2219987.737
10 0 59891  30342.000000  0   -5567157.129   3831341.760  -1346944.891
10 0 59891  30462.000000  0   -5559465.885   4044968.615   -450218.476
10 0 59891  30582.000000  0   -5451531.992   4186912.547    454428.347
10 0 59891  30702.000000  0   -5246484.704   4252930.035   1351072.843
10 0 59891  30822.000000  0   -4949233.534   4240187.546   2223922.585
10 0 59891  30942.000000  0   -4566355.698   4147342.261   3057602.045
10 0 59891  31062.000000  0   -4105951.008   3974593.497   3837431.077
10 0 59891  31182.000000  0   -3577467.381   3723701.139   4549689.005
10 0 59891  31302.000000  0   -2991502.527   3397972.405   5181858.530
10 0 59891  31422.000000  0   -2359585.580   3002217.149   5722845.463
10 0 59891  31542.000000  0   -1693944.953   2542673.336   6163170.404
10 0 59891  31662.000000  0   -1007266.803   2026904.169   6495129.586
10 0 59891  31782.000000  0    -312451.129   1463669.529   6712921.649
10 0 59891  31902.000000  0     377630.061    862775.027   6812743.720
10 0 59891  32022.000000  0    1050371.052    234900.321   6792853.347
10 0 59891  32142.000000  0    1693661.511   -408590.020   6653596.915
10 0 59891  32262.000000  0    2296103.736  -1055851.675   6397404.733
10 0 59891  32382.000000  0    2847214.670  -1694777.808   6028751.686
10 0 59891  32502.000000  0    3337610.771  -2313225.463   5554084.626
10 0 59891  32622.000000  0    3759171.172  -2899247.345   4981714.981
10 0 59891  32742.000000  0    4105176.654  -3441324.707   4321679.242
10 0 59891  32862.000000  0    4370421.693  -3928597.485   3585567.453
10 0 59891  32982.000000  0    4551297.193  -4351086.451   2786322.100
10 0 59891  33102.000000  0    4645842.080  -4699902.049   1938009.739
10 0 59891  33222.000000  0    4653761.070  -4967434.049   1055569.346
10 0 59891  33342.000000  0    4576408.068  -5147518.235    154543.021
10 0 59891  33462.000000  0    4416735.582  -5235574.834   -749205.309
10 0 59891  33582.000000  0    4179213.242  -5228716.217  -1639777.895
10 0 59891  33702.000000  0    3869714.335  -5125819.700  -2501531.687
10 0 59891  33822.000000  0    3495375.462  -4927564.421  -3319359.409
10 0 59891  33942.000000  0    3064432.656  -4636431.381  -4078957.952
10 0 59891  34062.000000  0    2586038.748  -4256668.657  -4767078.573
10 0 59891  34182.000000  0    2070066.374  -3794221.042  -5371754.260
10 0 59891  34302.000000  0    1526902.820  -3256627.932  -5882498.712
10 0 59891  34422.000000  0     967241.282  -2652894.430  -6290477.792
10 0 59891  34542.000000  0     401871.318  -1993336.099  -6588652.074
10 0 59891  34662.000000  0    -158526.738  -1289399.842  -6771887.479
10 0 59891  34782.000000  0    -703578.792   -553465.442  -6837033.807
10 0 59891  34902.000000  0   -1223403.684    201368.655  -6782972.467
10 0 59891  35022.000000  0   -1708788.233    961512.600  -6610632.870
10 0 59891  35142.000000  0   -2151346.602   1713123.511  -6322978.147
10 0 59891  35262.000000  0   -2543662.258   2442351.115  -5924959.941
10 0 59891  35382.000000  0   -2879412.200   3135588.561  -5423443.159
10 0 59891  35502.000000  0   -3153470.308   3779724.903  -4827099.193
10 0 59891  35622.000000  0   -3361989.295   4362394.991  -4146267.521
10 0 59891  35742.000000  0   -3502457.497   4872221.019  -3392785.384
10 0 59891  35862.000000  0   -3573728.683   5299039.625  -2579789.541
10 0 59891  35982.000000  0   -3576026.370   5634111.722  -1721493.471
10 0 59891  36102.000000  0   -3510920.758   5870310.332   -832940.309
10 0 59891  36222.000000  0   -3381276.910   6002278.805     70264.274
10 0 59891  36342.000000  0   -3191177.921   6026555.184    972231.229
10 0 59891  36462.000000  0   -2945822.200   5941660.768   1857077.701
10 0 59891  36582.000000  0   -2651395.471   5748146.740   2709217.524
10 0 59891  36702.000000  0   -2314923.699   5448598.117   3513644.075
10 0 59891  36822.000000  0   -1944111.432   5047597.474   4256200.061
10 0 59891  36942.000000  0   -1547169.107   4551649.216   4923830.059
10 0 59891  37062.000000  0   -1132632.779   3969066.688   5504811.177
10 0 59891  37182.000000  0    -709181.325   3309823.949   5988956.465
10 0 59891  37302.000000  0    -285456.160   2585376.807   6367788.897
10 0 59891  37422.000000  0     130113.698   1808457.717   6634683.360
10 0 59891  37542.000000  0     529477.975    992848.401   6784977.215
10 0 59891  37662.000000  0     905120.047    153132.993   6816046.020
10 0 59891  37782.000000  0    1250197.226   -695561.746   6727346.370
10 0 59891  37902.000000  0    1558664.880  -1537838.557   6520425.817
10 0 59891  38022.000000  0    1825382.583  -2358308.400   6198897.713
10 0 59891  38142.000000  0    2046200.440  -3141872.436   5768382.668
10 0 59891  38262.000000  0    2218024.407  -3874002.418   5236415.431
10 0 59891  38382.000000  0    2338858.964  -4541013.521   4612318.096
10 0 59891  38502.000000  0    2407827.451  -5130325.559   3907042.599
10 0 59891  38622.000000  0    2425169.877  -5630708.527   3132981.810
10 0 59891  38742.000000  0    2392215.215  -6032505.517   2303752.314
10 0 59891  38862.000000  0    2311330.746  -6327826.861   1433952.147
10 0 59891  38982.000000  0    2185849.928  -6510710.383    538899.700
10 0 59891  39102.000000  0    2019979.531  -6577247.119   -365641.984
10 0 59891  39222.000000  0    1818688.777  -6525666.574  -1263752.721
10 0 59891  39342.000000  0    1587580.651  -6356376.007  -2139645.665
10 0 59891  39462.000000  0    1332751.437  -6071956.958  -2977951.840
10 0 59891  39582.000000  0    1060642.346  -5677115.714  -3763995.513
10 0 59891  39702.000000  0     777888.210  -5178593.650  -4484051.344
10 0 59891  39822.000000  0     491164.729  -4585039.794  -5125581.446
10 0 59891  39942.000000  0     207039.025  -3906849.212  -5677447.137
10 0 59891  40062.000000  0     -68173.306  -3155971.001  -6130093.403
10 0 59891  40182.000000  0    -328541.645  -2345690.740  -6475703.122
10 0 59891  40302.000000  0    -568641.960  -1490392.208  -6708320.474
10 0 59891  40422.000000  0    -783664.532   -605303.052  -6823943.392
10 0 59891  40542.000000  0    -969505.982    293772.897  -6820585.194
10 0 59891  40662.000000  0   -1122844.863   1190731.338  -6698303.696
10 0 59891  40782.000000  0   -1241199.623   2069448.350  -6459200.271
10 0 59891  40902.000000  0   -1322967.975   2914062.671  -6107387.855
10 0 59891  41022.000000  0   -1367447.769   3709257.639  -5648929.424
10 0 59891  41142.000000  0   -1374838.591   4440537.475  -5091743.549
10 0 59891  41262.000000  0   -1346224.088   5094493.920  -4445479.654
10 0 59891  41382.000000  0   -1283535.363   5659058.587  -3721361.225
10 0 59891  41502.000000  0   -1189495.201   6123734.167  -2931999.104
10 0 59891  41622.000000  0   -1067544.341   6479800.196  -2091178.496
10 0 59891  41742.000000  0    -921751.118   6720489.429  -1213620.752
10 0 59891  41862.000000  0    -756706.611   6841127.462   -314724.608
10 0 59891  41982.000000  0    -577407.010   6839234.317    589707.988
10 0 59891  42102.000000  0    -389126.395   6714582.916   1483758.106
10 0 59891  42222.000000  0    -197283.522   6469209.765   2351680.798
10 0 59891  42342.000000  0      -7306.383   6107378.583   3178190.515
10 0 59891  42462.000000  0     175502.341   5635501.215   3948736.112
10 0 59891  42582.000000  0     346095.729   5062019.265   4649762.453
10 0 59891  42702.000000  0     499805.962   4397240.577   5268955.021
10 0 59891  42822.000000  0     632457.127   3653141.386   5795450.810
10 0 59891  42942.000000  0     740465.701   2843143.960   6220025.835
10 0 59891  43062.000000  0     820925.039   1981866.466   6535251.708
10 0 59891  43182.000000  0     871673.446   1084854.233   6735619.621
10 0 59891  43302.000000  0     891344.633    168296.175   6817630.517
10 0 59891  43422.000000  0     879399.627   -751266.515   6779852.080
10 0 59891  43542.000000  0     836139.358  -1657238.516   6622943.551
10 0 59891  43662.000000  0     762697.792  -2533269.721   6349645.174
10 0 59891  43782.000000  0     661015.715  -3363551.613   5964733.784
10 0 59891  43902.000000  0     533795.137  -4133104.524   5474941.748
10 0 59891  44022.000000  0     384436.828  -4828049.619   4888844.684
10 0 59891  44142.000000  0     216961.398  -5435864.820   4216718.857
10 0 59891  44262.000000  0      35914.086  -5945620.688   3470366.245
10 0 59891  44382.000000  0    -153744.735  -6348187.470   2662909.073
10 0 59891  44502.000000  0    -346760.117  -6636408.583   1808557.630
10 0 59891  44622.000000  0    -537711.618  -6805236.038    922357.480
10 0 59891  44742.000000  0    -721147.894  -6851827.492     19917.798
10 0 59891  44862.000000  0    -891723.371  -6775596.423   -882873.698
10 0 59891  44982.000000  0   -1044332.373  -6578215.659  -1770139.662
10 0 59891  45102.000000  0   -1174237.909  -6263576.206  -2626299.662
10 0 59891  45222.000000  0   -1277192.466  -5837703.009  -3436349.671
10 0 59891  45342.000000  0   -1349547.502  -5308628.685  -4186128.568
10 0 59891  45462.000000  0   -1388348.622  -4686228.973  -4862564.883
10 0 59891  45582.000000  0   -1391414.631  -3982026.468  -5453899.182
10 0 59891  45702.000000  0   -1357399.048  -3208967.778  -5949880.341
10 0 59891  45822.000000  0   -1285832.849  -2381178.595  -6341933.406
10 0 59891  45942.000000  0   -1177147.995  -1513701.501  -6623296.412
99
